OBJECT_NAME,OBJECT_ID,EPOCH,MEAN_MOTION,ECCENTRICITY,INCLINATION,RA_OF_ASC_NODE,ARG_OF_PERICENTER,MEAN_ANOMALY,EPHEMERIS_TYPE,CLASSIFICATION_TYPE,NORAD_CAT_ID,ELEMENT_SET_NO,REV_AT_EPOCH,BSTAR,MEAN_MOTION_DOT,MEAN_MOTION_DDOT
SKYSAT-C1,2016-040C,2026-06-16T01:03:15.450048,15.36285391,.00035905,96.9556,198.8256,60.3015,299.8587,0,U,41601,999,55769,.22743631E-3,.7972E-4,0
LAPAN-A3,2016-040E,2026-06-16T06:39:25.827264,15.33099705,.0010987,97.1486,163.4530,28.8573,331.3275,0,U,41603,999,55467,.94134268E-4,.2939E-4,0
GAOFEN-3,2016-049A,2026-06-16T07:41:58.662240,14.42216219,.00013863,98.4003,175.1198,99.6570,260.4776,0,U,41727,999,51852,.92221216E-4,.26E-5,0
SKYSAT-C4,2016-058B,2026-06-16T00:57:15.967296,15.48556256,.00012677,96.9166,188.8600,131.8208,228.3152,0,U,41771,999,54529,.27566003E-3,.14609E-3,0
SKYSAT-C5,2016-058C,2026-06-15T16:03:44.387136,15.34452064,.00011999,97.0467,207.3773,328.6214,31.4958,0,U,41772,999,54351,.19783339E-3,.6527E-4,0
SKYSAT-C2,2016-058D,2026-06-16T00:38:04.616448,15.42049192,.00047505,97.0163,189.1649,73.2340,286.9429,0,U,41773,999,54487,.24535698E-3,.104E-3,0
SKYSAT-C3,2016-058E,2026-06-16T01:08:36.464928,15.52496769,.00015268,96.8999,197.9382,92.3501,267.7928,0,U,41774,999,54593,.34532557E-3,.21082E-3,0
ALSAT-1B,2016-059C,2026-06-16T06:55:43.085568,14.72274781,.00080247,97.7743,176.0910,223.6885,136.3689,0,U,41785,999,52044,.66219233E-4,.371E-5,0
PATHFINDER 1,2016-059E,2026-06-16T07:38:30.390720,14.67662335,.00277294,97.8167,166.6339,206.4168,153.5626,0,U,41787,999,51958,.9179072E-4,.478E-5,0
SCATSAT 1,2016-059H,2026-06-15T22:16:44.135040,14.79523114,.0053342,98.1191,230.6814,251.6526,107.8878,0,U,41790,999,10140,.12836E-3,.925E-5,0
GOKTURK 1A,2016-073A,2026-06-16T06:54:50.295168,14.62774061,.00014436,98.1260,61.9773,75.4065,284.7297,0,U,41875,999,50869,.72261202E-4,.322E-5,0
RESOURCESAT-2A,2016-074A,2026-06-16T07:07:05.753568,14.21615648,.00033489,98.7533,240.8081,85.8116,274.3444,0,U,41877,999,49417,-.32085475E-4,-.115E-5,0
CARTOSAT-2D,2017-008A,2026-06-16T07:15:08.070336,15.19330220,.00039137,97.4108,226.6247,232.5415,127.5464,0,U,41948,999,51744,.19126822E-3,.3973E-4,0
SENTINEL-2B,2017-013A,2026-06-16T07:09:41.790240,14.30816698,.00011801,98.5697,242.0853,87.3876,272.7442,0,U,42063,999,48451,.28570241E-4,.31E-6,0
CARTOSAT-2E,2017-036C,2026-06-16T07:40:52.274208,15.19247849,.00025541,97.4272,227.1368,324.0959,36.0104,0,U,42767,999,49801,.16162841E-3,.3338E-4,0
FORMOSAT-5,2017-049A,2026-06-16T05:24:29.630880,14.50898575,.00126914,98.2254,242.5564,87.0189,273.2458,0,U,42920,999,46653,.45132566E-4,.135E-5,0
SENTINEL-5P,2017-064A,2026-06-16T06:51:12.631104,14.19518831,.0000958,98.7925,109.4232,84.5131,275.6155,0,U,42969,999,44943,.36877222E-4,.33E-6,0
SKYSAT-C11,2017-068A,2026-06-15T21:37:34.889664,15.57835924,.0000694,97.4350,315.6753,90.1959,269.9376,0,U,42987,999,48304,.31148E-3,.23112E-3,0
SKYSAT-C10,2017-068B,2026-06-16T07:32:34.546272,15.34625982,.00011174,97.4508,304.1523,96.3073,263.8298,0,U,42988,999,48222,.227322E-3,.7546E-4,0
SKYSAT-C9,2017-068C,2026-06-16T03:15:03.430368,15.41538752,.00093914,97.4428,304.8965,136.1768,224.0226,0,U,42989,999,48259,.27089885E-3,.11304E-3,0
SKYSAT-C8,2017-068D,2026-06-16T06:53:14.157888,15.36961346,.00014644,97.4525,303.9212,95.9907,264.1504,0,U,42990,999,48217,.24302977E-3,.8703E-4,0
SKYSAT-C7,2017-068E,2026-06-15T21:21:28.342368,15.36904194,.0007191,97.4534,304.5080,110.3101,249.8916,0,U,42991,999,48217,.23848E-3,.8529E-4,0
SKYSAT-C6,2017-068F,2026-06-15T21:46:50.920320,15.34191902,.0004356,97.4568,304.5004,140.9315,219.2243,0,U,42992,999,48212,.23542E-3,.7712E-4,0
CARTOSAT-2F,2018-004A,2026-06-16T05:17:28.885344,15.19210431,.00005475,97.4791,226.8641,215.7817,144.3381,0,U,43111,999,46718,.19302275E-3,.3995E-4,0
GAOFEN-1 02,2018-031A,2026-06-16T06:45:59.092416,14.76456513,.00038756,98.0530,229.8116,36.4538,323.6935,0,U,43259,999,44256,.12688024E-3,.831E-5,0
GAOFEN-1 03,2018-031B,2026-06-16T07:52:07.190400,14.76468118,.00037591,98.0517,229.7159,80.7674,279.3961,0,U,43260,999,44256,.97020691E-4,.624E-5,0
GAOFEN-1 04,2018-031D,2026-06-16T04:01:54.374880,14.76478078,.00022392,98.0533,229.7469,82.9600,277.1864,0,U,43262,999,44253,.76072167E-4,.478E-5,0
SENTINEL-3B,2018-039A,2026-06-16T01:37:23.087712,14.26734391,.00007239,98.6250,234.6160,87.1563,272.9700,0,U,43437,999,42396,.49011785E-4,.75E-6,0
GAOFEN-5 01,2018-043A,2026-06-16T04:06:28.345824,14.60604846,.0003028,98.4569,138.7360,85.0469,275.1076,0,U,43461,999,43154,.65958431E-4,.272E-5,0
GAOFEN-6,2018-048A,2026-06-15T20:26:00.300768,14.76597001,.00116931,97.8709,229.6314,171.3993,188.7420,0,U,43484,999,43319,.5061483E-4,.304E-5,0
